<?xml version="1.0" encoding="UTF-8"?>
<ndm xmlns:xsi="http://www.w3.org/2001/XMLSchema-instance" xsi:noNamespaceSchemaLocation="https://sanaregistry.org/r/ndmxml_unqualified/ndmxml-2.0.0-master-2.0.xsd">
<omm id="CCSDS_OMM_VERS" version="2.0">
<header><CREATION_DATE/><ORIGINATOR/></header><body><segment><metadata><OBJECT_NAME>IRIDIUM 36</OBJECT_NAME><OBJECT_ID>1997-056C</OBJECT_ID><CENTER_NAME>EARTH</CENTER_NAME><REF_FRAME>TEME</REF_FRAME><TIME_SYSTEM>UTC</TIME_SYSTEM><MEAN_ELEMENT_THEORY>SGP4</MEAN_ELEMENT_THEORY></metadata><data><meanElements><EPOCH>2024-06-24T20:29:15.581184</EPOCH><MEAN_MOTION>14.36856305</MEAN_MOTION><ECCENTRICITY>.0002315</ECCENTRICITY><INCLINATION>86.3968</INCLINATION><RA_OF_ASC_NODE>323.0738</RA_OF_ASC_NODE><ARG_OF_PERICENTER>92.0157</ARG_OF_PERICENTER><MEAN_ANOMALY>268.1305</MEAN_ANOMALY></meanElements><tleParameters><EPHEMERIS_TYPE>0</EPHEMERIS_TYPE><CLASSIFICATION_TYPE>U</CLASSIFICATION_TYPE><NORAD_CAT_ID>24967</NORAD_CAT_ID><ELEMENT_SET_NO>999</ELEMENT_SET_NO><REV_AT_EPOCH>40089</REV_AT_EPOCH><BSTAR>.19183E-3</BSTAR><MEAN_MOTION_DOT>.586E-5</MEAN_MOTION_DOT><MEAN_MOTION_DDOT>0</MEAN_MOTION_DDOT></tleParameters></data></segment></body></omm>
<omm id="CCSDS_OMM_VERS" version="2.0">
<header><CREATION_DATE/><ORIGINATOR/></header><body><segment><metadata><OBJECT_NAME>IRIDIUM 39</OBJECT_NAME><OBJECT_ID>1997-069D</OBJECT_ID><CENTER_NAME>EARTH</CENTER_NAME><REF_FRAME>TEME</REF_FRAME><TIME_SYSTEM>UTC</TIME_SYSTEM><MEAN_ELEMENT_THEORY>SGP4</MEAN_ELEMENT_THEORY></metadata><data><meanElements><EPOCH>2024-06-24T21:16:58.169568</EPOCH><MEAN_MOTION>14.48017146</MEAN_MOTION><ECCENTRICITY>.0020208</ECCENTRICITY><INCLINATION>86.3920</INCLINATION><RA_OF_ASC_NODE>4.2557</RA_OF_ASC_NODE><ARG_OF_PERICENTER>62.2302</ARG_OF_PERICENTER><MEAN_ANOMALY>298.0947</MEAN_ANOMALY></meanElements><tleParameters><EPHEMERIS_TYPE>0</EPHEMERIS_TYPE><CLASSIFICATION_TYPE>U</CLASSIFICATION_TYPE><NORAD_CAT_ID>25042</NORAD_CAT_ID><ELEMENT_SET_NO>999</ELEMENT_SET_NO><REV_AT_EPOCH>39723</REV_AT_EPOCH><BSTAR>.20324E-3</BSTAR><MEAN_MOTION_DOT>.777E-5</MEAN_MOTION_DOT><MEAN_MOTION_DDOT>0</MEAN_MOTION_DDOT></tleParameters></data></segment></body></omm>
<omm id="CCSDS_OMM_VERS" version="2.0">
<header><CREATION_DATE/><ORIGINATOR/></header><body><segment><metadata><OBJECT_NAME>IRIDIUM 38</OBJECT_NAME><OBJECT_ID>1997-069E</OBJECT_ID><CENTER_NAME>EARTH</CENTER_NAME><REF_FRAME>TEME</REF_FRAME><TIME_SYSTEM>UTC</TIME_SYSTEM><MEAN_ELEMENT_THEORY>SGP4</MEAN_ELEMENT_THEORY></metadata><data><meanElements><EPOCH>2024-06-24T15:35:48.827616</EPOCH><MEAN_MOTION>14.37305950</MEAN_MOTION><ECCENTRICITY>.0002418</ECCENTRICITY><INCLINATION>86.3961</INCLINATION><RA_OF_ASC_NODE>23.5275</RA_OF_ASC_NODE><ARG_OF_PERICENTER>133.1500</ARG_OF_PERICENTER><MEAN_ANOMALY>226.9900</MEAN_ANOMALY></meanElements><tleParameters><EPHEMERIS_TYPE>0</EPHEMERIS_TYPE><CLASSIFICATION_TYPE>U</CLASSIFICATION_TYPE><NORAD_CAT_ID>25043</NORAD_CAT_ID><ELEMENT_SET_NO>999</ELEMENT_SET_NO><REV_AT_EPOCH>39458</REV_AT_EPOCH><BSTAR>.15922E-3</BSTAR><MEAN_MOTION_DOT>.494E-5</MEAN_MOTION_DOT><MEAN_MOTION_DDOT>0</MEAN_MOTION_DDOT></tleParameters></data></segment></body></omm>
<omm id="CCSDS_OMM_VERS" version="2.0">
<header><CREATION_DATE/><ORIGINATOR/></header><body><segment><metadata><OBJECT_NAME>IRIDIUM 42</OBJECT_NAME><OBJECT_ID>1997-077A</OBJECT_ID><CENTER_NAME>EARTH</CENTER_NAME><REF_FRAME>TEME</REF_FRAME><TIME_SYSTEM>UTC</TIME_SYSTEM><MEAN_ELEMENT_THEORY>SGP4</MEAN_ELEMENT_THEORY></metadata><data><meanElements><EPOCH>2024-06-24T15:24:15.663744</EPOCH><MEAN_MOTION>14.35602113</MEAN_MOTION><ECCENTRICITY>.0001881</ECCENTRICITY><INCLINATION>86.3965</INCLINATION><RA_OF_ASC_NODE>29.2599</RA_OF_ASC_NODE><ARG_OF_PERICENTER>103.5600</ARG_OF_PERICENTER><MEAN_ANOMALY>256.5806</MEAN_ANOMALY></meanElements><tleParameters><EPHEMERIS_TYPE>0</EPHEMERIS_TYPE><CLASSIFICATION_TYPE>U</CLASSIFICATION_TYPE><NORAD_CAT_ID>25077</NORAD_CAT_ID><ELEMENT_SET_NO>999</ELEMENT_SET_NO><REV_AT_EPOCH>38988</REV_AT_EPOCH><BSTAR>.15171E-3</BSTAR><MEAN_MOTION_DOT>.457E-5</MEAN_MOTION_DOT><MEAN_MOTION_DDOT>0</MEAN_MOTION_DDOT></tleParameters></data></segment></body></omm>
<omm id="CCSDS_OMM_VERS" version="2.0">
<header><CREATION_DATE/><ORIGINATOR/></header><body><segment><metadata><OBJECT_NAME>IRIDIUM 44</OBJECT_NAME><OBJECT_ID>1997-077B</OBJECT_ID><CENTER_NAME>EARTH</CENTER_NAME><REF_FRAME>TEME</REF_FRAME><TIME_SYSTEM>UTC</TIME_SYSTEM><MEAN_ELEMENT_THEORY>SGP4</MEAN_ELEMENT_THEORY></metadata><data><meanElements><EPOCH>2024-06-24T13:58:46.539840</EPOCH><MEAN_MOTION>14.39443888</MEAN_MOTION><ECCENTRICITY>.0003822</ECCENTRICITY><INCLINATION>86.3959</INCLINATION><RA_OF_ASC_NODE>12.1732</RA_OF_ASC_NODE><ARG_OF_PERICENTER>104.1337</ARG_OF_PERICENTER><MEAN_ANOMALY>256.0286</MEAN_ANOMALY></meanElements><tleParameters><EPHEMERIS_TYPE>0</EPHEMERIS_TYPE><CLASSIFICATION_TYPE>U</CLASSIFICATION_TYPE><NORAD_CAT_ID>25078</NORAD_CAT_ID><ELEMENT_SET_NO>999</ELEMENT_SET_NO><REV_AT_EPOCH>39227</REV_AT_EPOCH><BSTAR>.16468E-3</BSTAR><MEAN_MOTION_DOT>.532E-5</MEAN_MOTION_DOT><MEAN_MOTION_DDOT>0</MEAN_MOTION_DDOT></tleParameters></data></segment></body></omm>
<omm id="CCSDS_OMM_VERS" version="2.0">
<header><CREATION_DATE/><ORIGINATOR/></header><body><segment><metadata><OBJECT_NAME>IRIDIUM 45</OBJECT_NAME><OBJECT_ID>1997-082A</OBJECT_ID><CENTER_NAME>EARTH</CENTER_NAME><REF_FRAME>TEME</REF_FRAME><TIME_SYSTEM>UTC</TIME_SYSTEM><MEAN_ELEMENT_THEORY>SGP4</MEAN_ELEMENT_THEORY></metadata><data><meanElements><EPOCH>2024-06-24T14:30:57.816576</EPOCH><MEAN_MOTION>15.03518051</MEAN_MOTION><ECCENTRICITY>.0157599</ECCENTRICITY><INCLINATION>86.3749</INCLINATION><RA_OF_ASC_NODE>218.7663</RA_OF_ASC_NODE><ARG_OF_PERICENTER>211.4947</ARG_OF_PERICENTER><MEAN_ANOMALY>147.6782</MEAN_ANOMALY></meanElements><tleParameters><EPHEMERIS_TYPE>0</EPHEMERIS_TYPE><CLASSIFICATION_TYPE>U</CLASSIFICATION_TYPE><NORAD_CAT_ID>25104</NORAD_CAT_ID><ELEMENT_SET_NO>999</ELEMENT_SET_NO><REV_AT_EPOCH>39822</REV_AT_EPOCH><BSTAR>.55267E-3</BSTAR><MEAN_MOTION_DOT>.9961E-4</MEAN_MOTION_DOT><MEAN_MOTION_DDOT>0</MEAN_MOTION_DDOT></tleParameters></data></segment></body></omm>
<omm id="CCSDS_OMM_VERS" version="2.0">
<header><CREATION_DATE/><ORIGINATOR/></header><body><segment><metadata><OBJECT_NAME>IRIDIUM 51</OBJECT_NAME><OBJECT_ID>1998-018A</OBJECT_ID><CENTER_NAME>EARTH</CENTER_NAME><REF_FRAME>TEME</REF_FRAME><TIME_SYSTEM>UTC</TIME_SYSTEM><MEAN_ELEMENT_THEORY>SGP4</MEAN_ELEMENT_THEORY></metadata><data><meanElements><EPOCH>2024-06-24T15:51:05.807232</EPOCH><MEAN_MOTION>15.11637610</MEAN_MOTION><ECCENTRICITY>.0145381</ECCENTRICITY><INCLINATION>86.3956</INCLINATION><RA_OF_ASC_NODE>228.5385</RA_OF_ASC_NODE><ARG_OF_PERICENTER>154.5256</ARG_OF_PERICENTER><MEAN_ANOMALY>206.3244</MEAN_ANOMALY></meanElements><tleParameters><EPHEMERIS_TYPE>0</EPHEMERIS_TYPE><CLASSIFICATION_TYPE>U</CLASSIFICATION_TYPE><NORAD_CAT_ID>25262</NORAD_CAT_ID><ELEMENT_SET_NO>999</ELEMENT_SET_NO><REV_AT_EPOCH>39254</REV_AT_EPOCH><BSTAR>.75124E-3</BSTAR><MEAN_MOTION_DOT>.1657E-3</MEAN_MOTION_DOT><MEAN_MOTION_DDOT>0</MEAN_MOTION_DDOT></tleParameters></data></segment></body></omm>

</ndm>
