IRIDIUM 36              
1 24967U 97056C   24176.85365256  .00000586  00000+0  19183-3 0  9998
2 24967  86.3968 323.0738 0002315  92.0157 268.1305 14.36856305400898
IRIDIUM 39              
1 25042U 97069D   24176.88678437  .00000777  00000+0  20324-3 0  9999
2 25042  86.3920   4.2557 0020208  62.2302 298.0947 14.48017146397232
IRIDIUM 38              
1 25043U 97069E   24176.64987069  .00000494  00000+0  15922-3 0  9992
2 25043  86.3961  23.5275 0002418 133.1500 226.9900 14.37305950394585
IRIDIUM 42              
1 25077U 97077A   24176.64184796  .00000457  00000+0  15171-3 0  9999
2 25077  86.3965  29.2599 0001881 103.5600 256.5806 14.35602113389883
IRIDIUM 44              
1 25078U 97077B   24176.58248310  .00000532  00000+0  16468-3 0  9990
2 25078  86.3959  12.1732 0003822 104.1337 256.0286 14.39443888392278
IRIDIUM 45              
1 25104U 97082A   24176.60483584  .00009961  00000+0  55267-3 0  9998
2 25104  86.3749 218.7663 0157599 211.4947 147.6782 15.03518051398226
IRIDIUM 51              
1 25262U 98018A   24176.66048388  .00016570  00000+0  75124-3 0  9996
2 25262  86.3956 228.5385 0145381 154.5256 206.3244 15.11637610392544
